VELA 1                   Age = -2.65
1 00692U 63039C   22050.40432435 -.00000508  00000-0  00000-0 0  9996
2 00692  11.3577 320.4082 5458467 266.8899 359.9378  0.22093967  9684
OPS 6679 (VELA 8)        Age = -0.12
1 02766U 67040B   22047.87061017 -.00000553  00000-0  00000+0 0  9996
2 02766  28.4086  27.9238 4549765  50.8794   0.9423  0.21219981 42866
TITAN 3C TRANSTAGE R/B   Age = -0.03
1 03956U 69046F   22047.77914152 -.00000109  00000-0  00000+0 0  9999
2 03956  17.5543 343.9073 8117591 282.2901   0.9216  0.46192280 54846
GEOTAIL                  Age = -3.36
1 22049U 92044A   22051.11074141 -.00000532  00000-0  00000-0 0  9996
2 22049  43.9891  38.8250 4977710 193.7782   0.3104  0.19231537 12733
CXO                      Age = -1.30
1 25867U 99040B   22049.05123833  .00000841  00000-0  00000+0 0  9994
2 25867  48.6839 243.0898 8677108 230.0953   0.5159  0.37813077 22506
CLUSTER II-FM7 (SAMBA)   Age = -1.24
1 26410U 00041A   22048.99569314 -.00000029  00000-0  00000-0 0  9992
2 26410 133.6716 346.6300 5387792 197.1081 359.3156  0.44188568 13282
CLUSTER II-FM6 (SALSA)   Age = -1.23
1 26411U 00041B   22048.98665559 -.00000023  00000-0  00000-0 0  9994
2 26411 135.3311 349.4337 6995106 201.6545 359.2460  0.44212634 13329
CLUSTER II-FM5 (RUMBA)   Age = -1.24
1 26463U 00045A   22048.99100579  .00000062  00000-0  00000-0 0  9994
2 26463 138.9204 349.6517 6521356 202.3188 359.3234  0.44213484 13213
CLUSTER II-FM8 (TANGO)   Age = -1.24
1 26464U 00045B   22048.99449397 -.00000028  00000-0  00000-0 0  9992
2 26464 133.6780 346.6259 5383915 197.1117 359.3024  0.44219786 13290
TITAN 3C TRANSTAGE R/B   Age = -1.56
1 50000U 70027C   22049.31868124  .00000146  00000-0  00000-0 0  9992
2 50000   4.0733 149.1780 8071949 100.9696   0.4798  0.44289146 84157
